{"type": "FeatureCollection", "features": [ {"type": "Feature", "properties": {"norad_id": 29963, "name": "FENGYUN 1C DEB", "group": "fengyun-1c-debris", "lat": 4.380176616493879, "lon": 43.89991827369763, "alt_km": 827.496089081239, "timestamp": "2025-12-05T11:32:56.291371+00:00", "meta": {"OBJECT_NAME": "FENGYUN 1C DEB", "OBJECT_ID": "1999-025KM", "EPOCH": "2025-12-04T09:47:03.336864", "MEAN_MOTION": 14.29412946, "ECCENTRICITY": 0.0052019, "INCLINATION": 98.9986, "RA_OF_ASC_NODE": 222.0963, "ARG_OF_PERICENTER": 326.3214, "MEAN_ANOMALY": 88.2805, "EPHEMERIS_TYPE": 0, "CLASSIFICATION_TYPE": "U", "NORAD_CAT_ID": 29963, "ELEMENT_SET_NO": 999, "REV_AT_EPOCH": 98024, "BSTAR": 0.001642, "MEAN_MOTION_DOT": 4.204e-05, "MEAN_MOTION_DDOT": 0}, "tle": {"line1": "1 29963U 99025KM  25338.40767751  .00004204  00000+0  16420-2 0  9996", "line2": "2 29963  98.9986 222.0963 0052019 326.3214  88.2805 14.29412946980248"}}, "geometry": {"type": "Point", "coordinates": [43.89991827369763, 4.380176616493879]}}, {"type": "Feature", "properties": {"norad_id": 29964, "name": "FENGYUN 1C DEB", "group": "fengyun-1c-debris", "lat": 47.53856236172812, "lon": 173.30545846206786, "alt_km": 924.1467673076486, "timestamp": "2025-12-05T11:32:56.291382+00:00", "meta": {"OBJECT_NAME": "FENGYUN 1C DEB", "OBJECT_ID": "1999-025KN", "EPOCH": "2025-12-04T13:03:52.233120", "MEAN_MOTION": 14.02705772, "ECCENTRICITY": 0.01312, "INCLINATION": 98.3712, "RA_OF_ASC_NODE": 181.7034, "ARG_OF_PERICENTER": 292.7812, "MEAN_ANOMALY": 65.9539, "EPHEMERIS_TYPE": 0, "CLASSIFICATION_TYPE": "U", "NORAD_CAT_ID": 29964, "ELEMENT_SET_NO": 999, "REV_AT_EPOCH": 96202, "BSTAR": 0.0018616, "MEAN_MOTION_DOT": 3.062e-05, "MEAN_MOTION_DDOT": 0}, "tle": {"line1": "1 29964U 99025KN  25338.54435455  .00003062  00000+0  18616-2 0  9995", "line2": "2 29964  98.3712 181.7034 0131200 292.7812  65.9539 14.02705772962025"}}, "geometry": {"type": "Point", "coordinates": [173.30545846206786, 47.53856236172812]}}, {"type": "Feature", "properties": {"norad_id": 29965, "name": "FENGYUN 1C DEB", "group": "fengyun-1c-debris", "lat": -22.949286345475908, "lon": -21.86076848424162, "alt_km": 950.6122322423998, "timestamp": "2025-12-05T11:32:56.291392+00:00", "meta": {"OBJECT_NAME": "FENGYUN 1C DEB", "OBJECT_ID": "1999-025KP", "EPOCH": "2025-12-04T13:50:18.386880", "MEAN_MOTION": 13.95767492, "ECCENTRICITY": 0.0146216, "INCLINATION": 98.9621, "RA_OF_ASC_NODE": 333.4278, "ARG_OF_PERICENTER": 90.328, "MEAN_ANOMALY": 25.1596, "EPHEMERIS_TYPE": 0, "CLASSIFICATION_TYPE": "U", "NORAD_CAT_ID": 29965, "ELEMENT_SET_NO": 999, "REV_AT_EPOCH": 96162, "BSTAR": 0.00036052, "MEAN_MOTION_DOT": 4.96e-06, "MEAN_MOTION_DDOT": 0}, "tle": {"line1": "1 29965U 99025KP  25338.57660170  .00000496  00000+0  36052-3 0  9996", "line2": "2 29965  98.9621 333.4278 0146216  90.3280  25.1596 13.95767492961625"}}, "geometry": {"type": "Point", "coordinates": [-21.86076848424162, -22.949286345475908]}}, {"type": "Feature", "properties": {"norad_id": 29966, "name": "FENGYUN 1C DEB", "group": "fengyun-1c-debris", "lat": 58.04402071099947, "lon": 21.402490348079834, "alt_km": 812.2614083023727, "timestamp": "2025-12-05T11:32:56.291403+00:00", "meta": {"OBJECT_NAME": "FENGYUN 1C DEB", "OBJECT_ID": "1999-025KQ", "EPOCH": "2025-12-04T13:05:30.950304", "MEAN_MOTION": 14.25729864, "ECCENTRICITY": 0.0039889, "INCLINATION": 99.492, "RA_OF_ASC_NODE": 184.8328, "ARG_OF_PERICENTER": 8.5473, "MEAN_ANOMALY": 351.6375, "EPHEMERIS_TYPE": 0, "CLASSIFICATION_TYPE": "U", "NORAD_CAT_ID": 29966, "ELEMENT_SET_NO": 999, "REV_AT_EPOCH": 97926, "BSTAR": 0.00067783, "MEAN_MOTION_DOT": 1.572e-05, "MEAN_MOTION_DDOT": 0}, "tle": {"line1": "1 29966U 99025KQ  25338.54549711  .00001572  00000+0  67783-3 0  9992", "line2": "2 29966  99.4920 184.8328 0039889   8.5473 351.6375 14.25729864979266"}}, "geometry": {"type": "Point", "coordinates": [21.402490348079834, 58.04402071099947]}}, {"type": "Feature", "properties": {"norad_id": 29967, "name": "FENGYUN 1C DEB", "group": "fengyun-1c-debris", "lat": -7.274460283699255, "lon": 57.17278139840999, "alt_km": 774.9477998284419, "timestamp": "2025-12-05T11:32:56.291414+00:00", "meta": {"OBJECT_NAME": "FENGYUN 1C DEB", "OBJECT_ID": "1999-025KR", "EPOCH": "2025-12-02T00:04:28.958016", "MEAN_MOTION": 14.23475675, "ECCENTRICITY": 0.00753802, "INCLINATION": 98.867, "RA_OF_ASC_NODE": 52.5267, "ARG_OF_PERICENTER": 323.9663, "MEAN_ANOMALY": 214.5788, "EPHEMERIS_TYPE": 0, "CLASSIFICATION_TYPE": "U", "NORAD_CAT_ID": 29967, "ELEMENT_SET_NO": 999, "REV_AT_EPOCH": 97069, "BSTAR": 0.0016186138, "MEAN_MOTION_DOT": 3.744e-05, "MEAN_MOTION_DDOT": 0}, "tle": {"line1": "1 29967U 99025KR  25336.00311294  .00003744  00000+0  16186-2 0  9998", "line2": "2 29967  98.8670  52.5267 0075380 323.9663 214.5788 14.23475675970695"}}, "geometry": {"type": "Point", "coordinates": [57.17278139840999, -7.274460283699255]}}, {"type": "Feature", "properties": {"norad_id": 29968, "name": "FENGYUN 1C DEB", "group": "fengyun-1c-debris", "lat": -20.90236852020892, "lon": -27.190094016141607, "alt_km": 820.8464066266088, "timestamp": "2025-12-05T11:32:56.291424+00:00", "meta": {"OBJECT_NAME": "FENGYUN 1C DEB", "OBJECT_ID": "1999-025KS", "EPOCH": "2025-12-04T10:46:42.453408", "MEAN_MOTION": 14.0724654, "ECCENTRICITY": 0.0090486, "INCLINATION": 98.804, "RA_OF_ASC_NODE": 328.4114, "ARG_OF_PERICENTER": 18.0455, "MEAN_ANOMALY": 135.6814, "EPHEMERIS_TYPE": 0, "CLASSIFICATION_TYPE": "U", "NORAD_CAT_ID": 29968, "ELEMENT_SET_NO": 999, "REV_AT_EPOCH": 96932, "BSTAR": 0.00042246, "MEAN_MOTION_DOT": 6.92e-06, "MEAN_MOTION_DDOT": 0}, "tle": {"line1": "1 29968U 99025KS  25338.44910247  .00000692  00000+0  42246-3 0  9998", "line2": "2 29968  98.8040 328.4114 0090486  18.0455 135.6814 14.07246540969328"}}, "geometry": {"type": "Point", "coordinates": [-27.190094016141607, -20.90236852020892]}}, {"type": "Feature", "properties": {"norad_id": 29969, "name": "FENGYUN 1C DEB", "group": "fengyun-1c-debris", "lat": 77.23863267706554, "lon": 20.710729064842848, "alt_km": 743.9589103234648, "timestamp": "2025-12-05T11:32:56.291434+00:00", "meta": {"OBJECT_NAME": "FENGYUN 1C DEB", "OBJECT_ID": "1999-025KT", "EPOCH": "2025-12-04T05:16:04.295424", "MEAN_MOTION": 14.3309336, "ECCENTRICITY": 0.0042432, "INCLINATION": 98.7726, "RA_OF_ASC_NODE": 62.4177, "ARG_OF_PERICENTER": 76.1982, "MEAN_ANOMALY": 338.7435, "EPHEMERIS_TYPE": 0, "CLASSIFICATION_TYPE": "U", "NORAD_CAT_ID": 29969, "ELEMENT_SET_NO": 999, "REV_AT_EPOCH": 97540, "BSTAR": 0.0040697, "MEAN_MOTION_DOT": 0.00011244, "MEAN_MOTION_DDOT": 0}, "tle": {"line1": "1 29969U 99025KT  25338.21949416  .00011244  00000+0  40697-2 0  9996", "line2": "2 29969  98.7726  62.4177 0042432  76.1982 338.7435 14.33093360975401"}}, "geometry": {"type": "Point", "coordinates": [20.710729064842848, 77.23863267706554]}}, {"type": "Feature", "properties": {"norad_id": 29970, "name": "FENGYUN 1C DEB", "group": "fengyun-1c-debris", "lat": 5.167100366374868, "lon": -93.26429708630778, "alt_km": 806.5473562073803, "timestamp": "2025-12-05T11:32:56.291444+00:00", "meta": {"OBJECT_NAME": "FENGYUN 1C DEB", "OBJECT_ID": "1999-025KU", "EPOCH": "2025-12-04T14:29:28.078080", "MEAN_MOTION": 14.43911881, "ECCENTRICITY": 0.0090395, "INCLINATION": 98.8075, "RA_OF_ASC_NODE": 266.6312, "ARG_OF_PERICENTER": 212.0041, "MEAN_ANOMALY": 274.6784, "EPHEMERIS_TYPE": 0, "CLASSIFICATION_TYPE": "U", "NORAD_CAT_ID": 29970, "ELEMENT_SET_NO": 999, "REV_AT_EPOCH": 99003, "BSTAR": 0.0010171, "MEAN_MOTION_DOT": 3.598e-05, "MEAN_MOTION_DDOT": 0}, "tle": {"line1": "1 29970U 99025KU  25338.60379720  .00003598  00000+0  10171-2 0  9993", "line2": "2 29970  98.8075 266.6312 0090395 212.0041 274.6784 14.43911881990037"}}, "geometry": {"type": "Point", "coordinates": [-93.26429708630778, 5.167100366374868]}}, {"type": "Feature", "properties": {"norad_id": 29971, "name": "FENGYUN 1C DEB", "group": "fengyun-1c-debris", "lat": -62.347738833045526, "lon": 36.36806681226451, "alt_km": 844.063697586791, "timestamp": "2025-12-05T11:32:56.291455+00:00", "meta": {"OBJECT_NAME": "FENGYUN 1C DEB", "OBJECT_ID": "1999-025KV", "EPOCH": "2025-12-04T14:26:06.164736", "MEAN_MOTION": 14.18137565, "ECCENTRICITY": 0.0023575, "INCLINATION": 98.6842, "RA_OF_ASC_NODE": 18.5477, "ARG_OF_PERICENTER": 190.7285, "MEAN_ANOMALY": 296.5774, "EPHEMERIS_TYPE": 0, "CLASSIFICATION_TYPE": "U", "NORAD_CAT_ID": 29971, "ELEMENT_SET_NO": 999, "REV_AT_EPOCH": 97224, "BSTAR": 0.0016442, "MEAN_MOTION_DOT": 3.343e-05, "MEAN_MOTION_DDOT": 0}, "tle": {"line1": "1 29971U 99025KV  25338.60146024  .00003343  00000+0  16442-2 0  9998", "line2": "2 29971  98.6842  18.5477 0023575 190.7285 296.5774 14.18137565972248"}}, "geometry": {"type": "Point", "coordinates": [36.36806681226451, -62.347738833045526]}}, {"type": "Feature", "properties": {"norad_id": 29972, "name": "FENGYUN 1C DEB", "group": "fengyun-1c-debris", "lat": -74.37232516513264, "lon": 25.12157506366858, "alt_km": 697.3320060570813, "timestamp": "2025-12-05T11:32:56.291466+00:00", "meta": {"OBJECT_NAME": "FENGYUN 1C DEB", "OBJECT_ID": "1999-025KW", "EPOCH": "2025-12-04T13:31:46.006752", "MEAN_MOTION": 14.66169901, "ECCENTRICITY": 0.0065514, "INCLINATION": 98.921, "RA_OF_ASC_NODE": 349.9633, "ARG_OF_PERICENTER": 37.4341, "MEAN_ANOMALY": 86.3021, "EPHEMERIS_TYPE": 0, "CLASSIFICATION_TYPE": "U", "NORAD_CAT_ID": 29972, "ELEMENT_SET_NO": 999, "REV_AT_EPOCH": 99366, "BSTAR": 0.0027409, "MEAN_MOTION_DOT": 0.00015537, "MEAN_MOTION_DDOT": 0}, "tle": {"line1": "1 29972U 99025KW  25338.56372693  .00015537  00000+0  27409-2 0  9990", "line2": "2 29972  98.9210 349.9633 0065514  37.4341  86.3021 14.66169901993666"}}, "geometry": {"type": "Point", "coordinates": [25.12157506366858, -74.37232516513264]}}]}